[{"OBJECT_NAME":"STARLINK-5790","OBJECT_ID":"2023-042BC","EPOCH":"2026-03-09T07:01:22.727424","MEAN_MOTION":15.02531395,"ECCENTRICITY":0.00012555,"INCLINATION":43.005,"RA_OF_ASC_NODE":44.9882,"ARG_OF_PERICENTER":272.4301,"MEAN_ANOMALY":87.6398,"EPHEMERIS_TYPE":0,"CLASSIFICATION_TYPE":"U","NORAD_CAT_ID":56036,"ELEMENT_SET_NO":999,"REV_AT_EPOCH":16300,"BSTAR":6.860817e-6,"MEAN_MOTION_DOT":-1.11e-6,"MEAN_MOTION_DDOT":0},{"OBJECT_NAME":"CZ-6A DEB","OBJECT_ID":"2024-140ADS","EPOCH":"2026-03-09T14:05:09.302208","MEAN_MOTION":15.17885306,"ECCENTRICITY":0.0073653,"INCLINATION":89.0442,"RA_OF_ASC_NODE":281.8925,"ARG_OF_PERICENTER":121.24,"MEAN_ANOMALY":239.6089,"EPHEMERIS_TYPE":0,"CLASSIFICATION_TYPE":"U","NORAD_CAT_ID":64628,"ELEMENT_SET_NO":999,"REV_AT_EPOCH":8034,"BSTAR":0.0029018,"MEAN_MOTION_DOT":0.00063537,"MEAN_MOTION_DDOT":0}]
